start=new Date('2022-08-11T00:00:00.000Z').valueOf();
sats=[{"PERIAPSIS":"546.117","EPOCH":"2022-08-10T07:53:44.956320","OBJECT_TYPE":"PAYLOAD","BSTAR":"-0.00064164000000","MEAN_ANOMALY":"296.4918","REV_AT_EPOCH":"12181","ARG_OF_PERICENTER":"63.6227","FILE":"3533800","INCLINATION":"53.0547","TIME_SYSTEM":"UTC","ELEMENT_SET_NO":"999","ECCENTRICITY":"0.00015230","GP_ID":"209964797","APOAPSIS":"548.227","DECAY_DATE":null,"COUNTRY_CODE":"US","EPHEMERIS_TYPE":"0","NORAD_CAT_ID":"45696","LAUNCH_DATE":"2020-06-04","MEAN_MOTION":"15.06413526","MEAN_MOTION_DOT":"-0.00009829","SEMIMAJOR_AXIS":"6925.307","RA_OF_ASC_NODE":"165.5805","CENTER_NAME":"EARTH","TLE_LINE1":"1 45696U 20035AR  22222.32899255 -.00009829  00000-0 -64164-3 0  9997","MEAN_MOTION_DDOT":"0.0000000000000","PERIOD":"95.591","OBJECT_ID":"2020-035AR","TLE_LINE2":"2 45696  53.0547 165.5805 0001523  63.6227 296.4918 15.06413526121818","OBJECT_NAME":"STARLINK-1422","CLASSIFICATION_TYPE":"U","MEAN_ELEMENT_THEORY":"SGP4","RCS_SIZE":"LARGE","REF_FRAME":"TEME","SITE":"AFETR"},{"GP_ID":"209965541","ECCENTRICITY":"0.00016340","ELEMENT_SET_NO":"999","LAUNCH_DATE":"2020-06-04","NORAD_CAT_ID":"45697","EPHEMERIS_TYPE":"0","APOAPSIS":"548.378","COUNTRY_CODE":"US","DECAY_DATE":null,"EPOCH":"2022-08-10T07:19:15.712608","PERIAPSIS":"546.115","INCLINATION":"53.0557","TIME_SYSTEM":"UTC","FILE":"3533800","ARG_OF_PERICENTER":"75.5794","REV_AT_EPOCH":"12210","BSTAR":"-0.00004227300000","MEAN_ANOMALY":"284.5376","OBJECT_TYPE":"PAYLOAD","CLASSIFICATION_TYPE":"U","TLE_LINE2":"2 45697  53.0557 145.7105 0001634  75.5794 284.5376 15.06389295122101","OBJECT_NAME":"STARLINK-1351","SITE":"AFETR","REF_FRAME":"TEME","RCS_SIZE":"LARGE","MEAN_ELEMENT_THEORY":"SGP4","MEAN_MOTION_DOT":"-0.00000911","SEMIMAJOR_AXIS":"6925.381","MEAN_MOTION":"15.06389295","PERIOD":"95.593","OBJECT_ID":"2020-035AS","MEAN_MOTION_DDOT":"0.0000000000000","TLE_LINE1":"1 45697U 20035AS  22222.30504297 -.00000911  00000-0 -42273-4 0  9996","RA_OF_ASC_NODE":"145.7105","CENTER_NAME":"EARTH"},{"ELEMENT_SET_NO":"999","ECCENTRICITY":"0.00016720","GP_ID":"209966295","COUNTRY_CODE":"US","DECAY_DATE":null,"APOAPSIS":"548.403","EPHEMERIS_TYPE":"0","NORAD_CAT_ID":"45698","LAUNCH_DATE":"2020-06-04","PERIAPSIS":"546.087","EPOCH":"2022-08-10T07:01:58.334592","OBJECT_TYPE":"PAYLOAD","BSTAR":"0.00000128690000","MEAN_ANOMALY":"292.9592","REV_AT_EPOCH":"12210","ARG_OF_PERICENTER":"67.1574","FILE":"3533800","TIME_SYSTEM":"UTC","INCLINATION":"53.0553","OBJECT_NAME":"STARLINK-1370","TLE_LINE2":"2 45698  53.0553 145.7435 0001672  67.1574 292.9592 15.06389684122104","CLASSIFICATION_TYPE":"U","MEAN_ELEMENT_THEORY":"SGP4","RCS_SIZE":"LARGE","REF_FRAME":"TEME","SITE":"AFETR","MEAN_MOTION":"15.06389684","SEMIMAJOR_AXIS":"6925.380","MEAN_MOTION_DOT":"-0.00000262","CENTER_NAME":"EARTH","RA_OF_ASC_NODE":"145.7435","TLE_LINE1":"1 45698U 20035AT  22222.29303628 -.00000262  00000-0  12869-5 0  9997","MEAN_MOTION_DDOT":"0.0000000000000","OBJECT_ID":"2020-035AT","PERIOD":"95.593"},{"CLASSIFICATION_TYPE":"U","OBJECT_NAME":"STARLINK-1398","TLE_LINE2":"2 45699  53.0541 146.6998 0001130  87.9228 272.1890 15.06390272122062","RCS_SIZE":"LARGE","MEAN_ELEMENT_THEORY":"SGP4","SITE":"AFETR","REF_FRAME":"TEME","MEAN_MOTION":"15.06390272","SEMIMAJOR_AXIS":"6925.378","MEAN_MOTION_DOT":"-0.00001443","TLE_LINE1":"1 45699U 20035AU  22222.08387490 -.00001443  00000-0 -78025-4 0  9992","CENTER_NAME":"EARTH","RA_OF_ASC_NODE":"146.6998","OBJECT_ID":"2020-035AU","PERIOD":"95.593","MEAN_MOTION_DDOT":"0.0000000000000","ELEMENT_SET_NO":"999","GP_ID":"209966038","ECCENTRICITY":"0.00011300","EPHEMERIS_TYPE":"0","COUNTRY_CODE":"US","DECAY_DATE":null,"APOAPSIS":"548.026","LAUNCH_DATE":"2020-06-04","NORAD_CAT_ID":"45699","PERIAPSIS":"546.461","EPOCH":"2022-08-10T02:00:46.791360","BSTAR":"-0.00007802500000","MEAN_ANOMALY":"272.1890","REV_AT_EPOCH":"12206","OBJECT_TYPE":"PAYLOAD","TIME_SYSTEM":"UTC","INCLINATION":"53.0541","FILE":"3533800","ARG_OF_PERICENTER":"87.9228"},{"MEAN_ELEMENT_THEORY":"SGP4","RCS_SIZE":"LARGE","REF_FRAME":"TEME","SITE":"AFETR","OBJECT_NAME":"STARLINK-1400","TLE_LINE2":"2 45700  53.0560 145.8022 0001169  92.5327 267.5796 15.06382620122093","CLASSIFICATION_TYPE":"U","CENTER_NAME":"EARTH","RA_OF_ASC_NODE":"145.8022","TLE_LINE1":"1 45700U 20035AV  22222.27924312 -.00001051  00000-0 -51737-4 0  9992","MEAN_MOTION_DDOT":"0.0000000000000","OBJECT_ID":"2020-035AV","PERIOD":"95.593","MEAN_MOTION":"15.06382620","MEAN_MOTION_DOT":"-0.00001051","SEMIMAJOR_AXIS":"6925.402","DECAY_DATE":null,"COUNTRY_CODE":"US","APOAPSIS":"548.076","EPHEMERIS_TYPE":"0","NORAD_CAT_ID":"45700","LAUNCH_DATE":"2020-06-04","ELEMENT_SET_NO":"999","ECCENTRICITY":"0.00011690","GP_ID":"209965297","OBJECT_TYPE":"PAYLOAD","REV_AT_EPOCH":"12209","BSTAR":"-0.00005173700000","MEAN_ANOMALY":"267.5796","ARG_OF_PERICENTER":"92.5327","FILE":"3533800","TIME_SYSTEM":"UTC","INCLINATION":"53.0560","PERIAPSIS":"546.457","EPOCH":"2022-08-10T06:42:06.605568"},{"ECCENTRICITY":"0.00017320","GP_ID":"209965043","ELEMENT_SET_NO":"999","NORAD_CAT_ID":"45701","LAUNCH_DATE":"2020-06-04","COUNTRY_CODE":"US","DECAY_DATE":null,"APOAPSIS":"548.437","EPHEMERIS_TYPE":"0","EPOCH":"2022-08-10T04:13:28.463232","PERIAPSIS":"546.038","FILE":"3533800","ARG_OF_PERICENTER":"71.1611","TIME_SYSTEM":"UTC","INCLINATION":"53.0546","OBJECT_TYPE":"PAYLOAD","REV_AT_EPOCH":"12207","BSTAR":"-0.00013557000000","MEAN_ANOMALY":"288.9566","OBJECT_NAME":"STARLINK-1403","TLE_LINE2":"2 45701  53.0546 146.2818 0001732  71.1611 288.9566 15.06392275122078","CLASSIFICATION_TYPE":"U","REF_FRAME":"TEME","SITE":"AFETR","MEAN_ELEMENT_THEORY":"SGP4","RCS_SIZE":"LARGE","SEMIMAJOR_AXIS":"6925.372","MEAN_MOTION_DOT":"-0.00002300","MEAN_MOTION":"15.06392275","MEAN_MOTION_DDOT":"0.0000000000000","OBJECT_ID":"2020-035AW","PERIOD":"95.593","CENTER_NAME":"EARTH","RA_OF_ASC_NODE":"146.2818","TLE_LINE1":"1 45701U 20035AW  22222.17602388 -.00002300  00000-0 -13557-3 0  9993"},{"EPHEMERIS_TYPE":"0","DECAY_DATE":null,"COUNTRY_CODE":"US","APOAPSIS":"548.397","LAUNCH_DATE":"2020-06-04","NORAD_CAT_ID":"45702","ELEMENT_SET_NO":"999","GP_ID":"209994309","ECCENTRICITY":"0.00016670","REV_AT_EPOCH":"12217","BSTAR":"0.00001911700000","MEAN_ANOMALY":"284.4234","OBJECT_TYPE":"PAYLOAD","TIME_SYSTEM":"UTC","INCLINATION":"53.0544","ARG_OF_PERICENTER":"75.6940","FILE":"3533963","PERIAPSIS":"546.088","EPOCH":"2022-08-10T19:42:20.551680","RCS_SIZE":"LARGE","MEAN_ELEMENT_THEORY":"SGP4","SITE":"AFETR","REF_FRAME":"TEME","CLASSIFICATION_TYPE":"U","OBJECT_NAME":"STARLINK-1405","TLE_LINE2":"2 45702  53.0544 143.3771 0001667  75.6940 284.4234 15.06390593122179","TLE_LINE1":"1 45702U 20035AX  22222.82107120  .00000003  00000-0  19117-4 0  9995","CENTER_NAME":"EARTH","RA_OF_ASC_NODE":"143.3771","OBJECT_ID":"2020-035AX","PERIOD":"95.593","MEAN_MOTION_DDOT":"0.0000000000000","MEAN_MOTION":"15.06390593","MEAN_MOTION_DOT":"0.00000003","SEMIMAJOR_AXIS":"6925.377"},{"CLASSIFICATION_TYPE":"U","OBJECT_NAME":"STARLINK-1407","TLE_LINE2":"2 45703  53.0548 145.7931 0001574  77.4011 282.7154 15.06378244122096","SITE":"AFETR","REF_FRAME":"TEME","RCS_SIZE":"LARGE","MEAN_ELEMENT_THEORY":"SGP4","MEAN_MOTION_DOT":"-0.00007034","SEMIMAJOR_AXIS":"6925.415","MEAN_MOTION":"15.06378244","OBJECT_ID":"2020-035AY","PERIOD":"95.594","MEAN_MOTION_DDOT":"0.0000000000000","TLE_LINE1":"1 45703U 20035AY  22222.28660966 -.00007034  00000-0 -45402-3 0  9996","CENTER_NAME":"EARTH","RA_OF_ASC_NODE":"145.7931","GP_ID":"209966538","ECCENTRICITY":"0.00015740","ELEMENT_SET_NO":"999","LAUNCH_DATE":"2020-06-04","NORAD_CAT_ID":"45703","EPHEMERIS_TYPE":"0","DECAY_DATE":null,"COUNTRY_CODE":"US","APOAPSIS":"548.370","EPOCH":"2022-08-10T06:52:43.074624","PERIAPSIS":"546.190","TIME_SYSTEM":"UTC","INCLINATION":"53.0548","ARG_OF_PERICENTER":"77.4011","FILE":"3533800","MEAN_ANOMALY":"282.7154","BSTAR":"-0.00045402000000","REV_AT_EPOCH":"12209","OBJECT_TYPE":"PAYLOAD"},{"BSTAR":"-0.00018996000000","REV_AT_EPOCH":"12176","MEAN_ANOMALY":"288.6831","OBJECT_TYPE":"PAYLOAD","TIME_SYSTEM":"UTC","INCLINATION":"53.0540","ARG_OF_PERICENTER":"71.4354","FILE":"3533963","PERIAPSIS":"545.977","EPOCH":"2022-08-10T20:14:09.888864","EPHEMERIS_TYPE":"0","COUNTRY_CODE":"US","DECAY_DATE":null,"APOAPSIS":"548.475","LAUNCH_DATE":"2020-06-04","NORAD_CAT_ID":"45704","ELEMENT_SET_NO":"999","GP_ID":"209993329","ECCENTRICITY":"0.00018040","TLE_LINE1":"1 45704U 20035AZ  22222.84317001 -.00003110  00000-0 -18996-3 0  9997","CENTER_NAME":"EARTH","RA_OF_ASC_NODE":"173.2952","OBJECT_ID":"2020-035AZ","PERIOD":"95.592","MEAN_MOTION_DDOT":"0.0000000000000","MEAN_MOTION":"15.06395913","SEMIMAJOR_AXIS":"6925.361","MEAN_MOTION_DOT":"-0.00003110","RCS_SIZE":"LARGE","MEAN_ELEMENT_THEORY":"SGP4","SITE":"AFETR","REF_FRAME":"TEME","CLASSIFICATION_TYPE":"U","OBJECT_NAME":"STARLINK-1409","TLE_LINE2":"2 45704  53.0540 173.2952 0001804  71.4354 288.6831 15.06395913121760"},{"ELEMENT_SET_NO":"999","ECCENTRICITY":"0.00016290","GP_ID":"209965542","APOAPSIS":"548.387","COUNTRY_CODE":"US","DECAY_DATE":null,"EPHEMERIS_TYPE":"0","NORAD_CAT_ID":"45705","LAUNCH_DATE":"2020-06-04","PERIAPSIS":"546.131","EPOCH":"2022-08-10T06:32:49.531200","OBJECT_TYPE":"PAYLOAD","MEAN_ANOMALY":"277.3141","BSTAR":"-0.00003697500000","REV_AT_EPOCH":"12166","FILE":"3533800","ARG_OF_PERICENTER":"82.8033","INCLINATION":"53.0528","TIME_SYSTEM":"UTC","TLE_LINE2":"2 45705  53.0528 175.8308 0001629  82.8033 277.3141 15.06385261121668","OBJECT_NAME":"STARLINK-1410","CLASSIFICATION_TYPE":"U","MEAN_ELEMENT_THEORY":"SGP4","RCS_SIZE":"LARGE","REF_FRAME":"TEME","SITE":"AFETR","MEAN_MOTION":"15.06385261","MEAN_MOTION_DOT":"-0.00000832","SEMIMAJOR_AXIS":"6925.394","RA_OF_ASC_NODE":"175.8308","CENTER_NAME":"EARTH","TLE_LINE1":"1 45705U 20035BA  22222.27279550 -.00000832  00000-0 -36975-4 0  9997","MEAN_MOTION_DDOT":"0.0000000000000","PERIOD":"95.593","OBJECT_ID":"2020-035BA"}];
